#dP2021  2  2 12  0  0.00000000      96 __u+U ITR00 EXT  IAC
## 2143 216000.00000000   900.00000000 59247 0.5000000000000
+  116   C06C07C08C09C10C11C12C13C14C16C19C20C21C22C23C24C25
+        C26C27C28C29C30C32C33C34C35C36C37C38C39C40C41C42C43
+        C44C45C46E01E02E03E04E05E07E08E09E11E12E13E14E15E18
+        E19E21E24E25E26E27E30E31E33E36G01G02G03G04G05G06G07
+        G08G09G10G11G12G13G14G15G16G17G18G19G20G21G22G23G24
+        G25G26G27G28G29G30G31G32J01J02J03R01R02R03R04R05R07
+        R08R11R12R13R14R15R16R17R18R19R20R21R22R24  0  0  0
++        11 11  8 11 10  7  8  9 11  9  9  8  8  7  9 10  7
++         9  8  8  8  9 10 10  9  9  8 10  9 11 11  9  8  7
++        10 10  9  8  8  7  8  8  7  7  7  7  9  9  7  6  7
++         9  9  8  8  8  9  8  9  8 10  7  8  8  7  8  7  8
++         8  8  7  8  7  8  7  8  9  8  7  7  7  8  8  8  9
++         8  9  8  8  7  8  7  8 12 12  9 10  8  8  7  9  8
++         8  8  8  8  8  7  8  7  8  8  9 10  9  8  0  0  0
%c M  cc GPS ccc cccc cccc cccc cccc ccccc ccccc ccccc ccccc
%c cc cc ccc ccc cccc cccc cccc cccc ccccc ccccc ccccc ccccc
%f  0.0000000  0.000000000  0.00000000000  0.000000000000000
%f  0.0000000  0.000000000  0.00000000000  0.000000000000000
%i    0    0    0    0      0      0      0      0         0
%i    0    0    0    0      0      0      0      0         0
/* IAC                                ULTRA-RAPID PREDICTION
/* S/V CLOCKS ARE ALIGNED TO GNSS TIME                      
/* G:C1WC2W R:C1PC2P E:C1XC5X C:C2IC6I J:C1CC2S             
/* PCV:IGS14_2134 OL/AL:FES2004  NONE     YN ORB:CoN CLK:CoN
*  2021 02 03  0  0  0.00000000
PC06  -5690.277697  27760.083402  31790.184146     57.781132
PC07 -22854.767153  26894.988617 -23150.465299   -288.402641
PC08 -15558.779730  38194.224917  -7600.347510   -921.234750
PC09   7158.491323  34632.575058  23534.841811    760.178225
PC10  -9044.973932  28237.513748 -29899.040357    -93.052840
PC11  19744.423270  15536.288339  12171.776556   -929.544157
PC12  12266.909224  24479.521413  -5298.323955    771.546011
PC13  -5947.680902  40971.280792   7299.411047    124.991196
PC14  24571.271698   6108.871084  11699.376138     46.138003
PC16  -4404.558772  27653.540005  31673.481517   -681.445023
PC19 -27770.715581    446.138378  -2756.869036    713.829761
PC20 -18705.142281 -10721.469930 -17717.036026   -912.216153
PC21  -2061.336875  16007.796103  22782.076089   -820.376640
PC22 -21028.579161  11621.842390  14216.930251   -865.802337
PC23  16846.108839 -20498.362623  -8666.286118   -877.353736
PC24   8503.196585  16543.079807 -20805.688021   -752.745979
PC25  18132.748793  -3956.726283 -20854.404433   -919.718369
PC26  -4574.839725  25921.505666  -9219.218827    954.005192
PC27  -4561.876583 -23888.377072  13653.337433    476.910065
PC28  10834.676046 -12049.024721  22726.264540   -114.160021
PC29 -20076.626274  -6041.377537 -18416.878168    347.156172
PC30 -17811.682955 -21267.358072  -2907.502423    439.683158
PC32   1939.921031 -16022.421584 -22751.431016   -889.435073
PC33  27746.702733   -504.695774   2874.242413   -946.695741
PC34  18063.119454  20992.794780   3543.796123   -748.805244
PC35 -10655.946288  12223.101618 -22714.096189   -436.110666
PC36 -18132.952059   3142.852470  20994.267706   -763.336508
PC37   5814.742629 -25961.929060   8475.477124   -862.432210
PC38 -14435.910671  39151.950007  -5529.182899    127.707966
PC39  -1620.402188  28278.917124  31277.792677     28.075655
PC40 -16278.206030  23256.620307 -31215.380849    127.645476
PC41  21201.939065 -11559.685521 -13949.300616   -931.226888
PC42  18070.117871  11127.499069  18157.700697   -840.817266
PC43  20228.370225   6570.368813  18078.183466   -580.450290
PC44   5138.042974  23743.995366 -13766.955173     18.928846
PC45 -16724.532017  20578.152272   8647.299165    351.950203
PC46  -8983.338358 -15813.742277  21177.300064    423.162412
PE01  21048.047814 -20275.673207   4742.430411  -1038.010275
PE02 -20961.820068  20308.750846  -4858.730494    195.615441
PE03 -14726.191237  11538.119786  22936.412289   -394.332875
PE04  -6314.867939 -19132.411233 -21683.542080   -701.829593
PE05 -27422.910360  -2934.032271  10748.323676   -307.730156
PE07  24003.669165  15559.393276   7595.632513   -495.858798
PE08   6786.298287  19009.382627  21644.821260   6052.708225
PE09 -24202.971591 -15322.335096  -7485.363959   5778.224016
PE11 -13784.768723 -20541.076521 -16240.120366   6376.933788
PE12  -2826.847991 -29369.034833   2254.219736   5375.344869
PE13  13666.540279  20848.661106  15978.028388    411.395883
PE14  21420.530561   7524.343779   8773.768988  -1316.563833
PE15   2993.467669  29369.333243  -2182.987502    831.204004
PE18 -25546.221552    122.539155 -19571.835929  -1439.093862
PE19  16784.607163  -9971.670869 -22249.917698    194.156141
PE21  25166.744308  -8312.563417 -13195.730201   -646.324620
PE24 -14261.065476  -9559.275119  24094.847485   -723.090368
PE25 -25125.885659   8151.634257  13347.952411   -525.633623
PE26  16370.909332   -680.590109  24663.684584   2192.747104
PE27  14847.714486   8907.120949 -24009.147470     37.975023
PE30  -4961.312996  21038.840024 -20221.425222   3212.282007
PE31   4150.094090 -20804.411972  20652.307485   -477.933058
PE33   9450.206882 -20582.972801  19066.687416   -465.375076
PE36 -16282.484867    -87.609408 -24706.425364    445.811323
PG01  13314.657960 -13559.379254  18166.348703    768.802472
PG02 -13467.145198 -11083.292009 -19366.566254   -572.796914
PG03  22753.006797 -13254.352770  -3097.194059    -72.763207
PG04  16948.755900  -4811.941541 -19885.949922   -177.468805
PG05 -22558.404055    375.319411 -14313.157755    -32.657944
PG06  -6298.429752 -22759.804479 -12040.623035     -3.778565
PG07   6611.567089 -24581.138691  -6294.788994     44.884781
PG08  21524.000141   1251.692348  15713.541220     -8.870040
PG09   5835.410796 -14480.608704 -21546.913005   -319.171130
PG10   1177.964823  15774.758427  21401.251405    -53.088486
PG11  15202.067647  -5083.191149  20720.462088    -35.454604
PG12 -24719.181475   9456.467204    403.412586      4.255174
PG13 -22158.102867 -11894.461784   8597.429356     92.861984
PG14   1510.897912 -16477.197485  20766.585501     93.535073
PG15 -21658.600184   1370.457104  15188.729501   -172.044984
PG16  21860.782377   2955.015059 -15359.892857   -274.359871
PG17 -10348.668431 -20117.568821  14349.978735    388.216680
PG18  -5260.053305  25708.780599  -3904.820652    345.284524
PG19 -16483.538155 -19743.034074   6528.217447    -43.601747
PG20 -10206.868839  19603.243634  14475.748139    524.875108
PG21  15408.087106  -4793.098669  21778.543940     92.278182
PG22  24109.066334  -9048.648469   6328.737532   -686.718115
PG23 -10438.053314  18099.425964  16351.873914    117.889280
PG24 -14806.441492   8632.145085  19955.880139      2.857033
PG25 -16513.774384  17077.664889 -11838.678854     72.648724
PG26  13665.826175   9735.211595 -20691.170429     39.246700
PG27  23349.271544  12150.402237   4648.499242    -68.680780
PG28  -1421.328017 -15481.017131  22119.529714    621.020188
PG29  -6954.715015  13156.519893 -22036.377893   -287.737414
PG30   -872.917876 -25984.154823   4868.158261   -378.804502
PG31   7989.918665  20744.321238 -14255.228512    -97.735300
PG32  12498.927439  19571.191263  13135.983157     17.251792
PJ01 -29883.377861  23092.671383  23827.421492   -338.925583
PJ02 -35205.238940  23240.119595   5832.105508      1.392785
PJ03 -20489.322552  21637.334385 -25199.459699     -0.422548
PR01 -24090.620198  -5236.244325  -6575.180442     74.416278
PR02 -20744.063681   4412.671745  14164.751549    465.434971
PR03  -4528.977399  10448.962010  22859.850515     30.223470
PR04  14017.046638  10307.761878  18680.592664     72.547367
PR05  24778.171647   4611.171418   4022.215470     65.854134
PR07   3948.275337 -10509.889848 -22873.059506    -42.325609
PR08 -14048.015825 -10359.963319 -18539.726887    -57.192188
PR11  -2040.598785 -14329.992260  21008.921971      3.831620
PR12 -13747.291234   1611.958184  21440.667661    201.842930
PR13 -17086.501379  16410.710175   9426.632128    -50.163048
PR14 -10456.439904  21615.570768  -8611.765988     60.566021
PR15   2180.625482  14151.398602 -21092.997087    105.608104
PR16  14314.587121  -2812.409575 -20987.367999    -10.877196
PR17   1629.348729  20580.731673 -14942.792589    396.733680
PR18  10629.526612  23193.728504   1147.960905     65.328215
PR19  13569.772227  14388.045826  16115.779821   -130.465165
PR20   8918.903228  -5523.893525  23263.001006   -432.522668
PR21  -2316.596969 -21169.569885  14065.841812   -184.895135
PR22 -10913.074330 -22883.541375  -2300.351006    -95.837133
PR24  -8915.119991   6581.514201 -22951.469800     30.107759
EOF
